{"type": "FeatureCollection", "features": [ {"type": "Feature", "properties": {"norad_id": 30545, "name": "FENGYUN 1C DEB", "group": "fengyun-1c-debris", "lat": 79.2064882205443, "lon": 140.70417762876286, "alt_km": 1023.4166369725845, "timestamp": "2025-12-10T09:57:44.976456+00:00", "meta": {"OBJECT_NAME": "FENGYUN 1C DEB", "OBJECT_ID": "1999-025AKK", "EPOCH": "2025-12-09T00:50:52.495584", "MEAN_MOTION": 13.20777712, "ECCENTRICITY": 0.04728186, "INCLINATION": 98.9994, "RA_OF_ASC_NODE": 195.7383, "ARG_OF_PERICENTER": 19.8676, "MEAN_ANOMALY": 342.0194, "EPHEMERIS_TYPE": 0, "CLASSIFICATION_TYPE": "U", "NORAD_CAT_ID": 30545, "ELEMENT_SET_NO": 999, "REV_AT_EPOCH": 90881, "BSTAR": 0.00070951332, "MEAN_MOTION_DOT": 4.84e-06, "MEAN_MOTION_DDOT": 0}, "tle": {"line1": "1 30545U 99025AKK 25343.03532981  .00000484  00000+0  70951-3 0  9990", "line2": "2 30545  98.9994 195.7383 0472818  19.8676 342.0194 13.20777712908816"}}, "geometry": {"type": "Point", "coordinates": [140.70417762876286, 79.2064882205443]}}, {"type": "Feature", "properties": {"norad_id": 30546, "name": "FENGYUN 1C DEB", "group": "fengyun-1c-debris", "lat": -67.84193932396943, "lon": -2.502830507904634, "alt_km": 602.1371499119778, "timestamp": "2025-12-10T09:57:44.976466+00:00", "meta": {"OBJECT_NAME": "FENGYUN 1C DEB", "OBJECT_ID": "1999-025AKL", "EPOCH": "2025-12-09T13:36:26.983008", "MEAN_MOTION": 14.8707169, "ECCENTRICITY": 0.0092528, "INCLINATION": 98.9083, "RA_OF_ASC_NODE": 199.2, "ARG_OF_PERICENTER": 172.5722, "MEAN_ANOMALY": 218.242, "EPHEMERIS_TYPE": 0, "CLASSIFICATION_TYPE": "U", "NORAD_CAT_ID": 30546, "ELEMENT_SET_NO": 999, "REV_AT_EPOCH": 410, "BSTAR": 0.0012913, "MEAN_MOTION_DOT": 0.00012475, "MEAN_MOTION_DDOT": 0}, "tle": {"line1": "1 30546U 99025AKL 25343.56697897  .00012475  00000+0  12913-2 0  9993", "line2": "2 30546  98.9083 199.2000 0092528 172.5722 218.2420 14.87071690  4107"}}, "geometry": {"type": "Point", "coordinates": [-2.502830507904634, -67.84193932396943]}}, {"type": "Feature", "properties": {"norad_id": 30547, "name": "FENGYUN 1C DEB", "group": "fengyun-1c-debris", "lat": 15.377910892020122, "lon": -175.1418711317116, "alt_km": 826.153256391347, "timestamp": "2025-12-10T09:57:44.976476+00:00", "meta": {"OBJECT_NAME": "FENGYUN 1C DEB", "OBJECT_ID": "1999-025AKM", "EPOCH": "2025-12-09T20:36:19.507104", "MEAN_MOTION": 14.37743313, "ECCENTRICITY": 0.0095087, "INCLINATION": 98.9024, "RA_OF_ASC_NODE": 186.7526, "ARG_OF_PERICENTER": 225.9925, "MEAN_ANOMALY": 150.1949, "EPHEMERIS_TYPE": 0, "CLASSIFICATION_TYPE": "U", "NORAD_CAT_ID": 30547, "ELEMENT_SET_NO": 999, "REV_AT_EPOCH": 98681, "BSTAR": 0.00050091, "MEAN_MOTION_DOT": 1.539e-05, "MEAN_MOTION_DDOT": 0}, "tle": {"line1": "1 30547U 99025AKM 25343.85855911  .00001539  00000+0  50091-3 0  9998", "line2": "2 30547  98.9024 186.7526 0095087 225.9925 150.1949 14.37743313986818"}}, "geometry": {"type": "Point", "coordinates": [-175.1418711317116, 15.377910892020122]}}, {"type": "Feature", "properties": {"norad_id": 30548, "name": "FENGYUN 1C DEB", "group": "fengyun-1c-debris", "lat": 1.4339187949555456, "lon": -118.61314966819883, "alt_km": 758.4319684128795, "timestamp": "2025-12-10T09:57:44.976486+00:00", "meta": {"OBJECT_NAME": "FENGYUN 1C DEB", "OBJECT_ID": "1999-025AKN", "EPOCH": "2025-12-09T12:38:45.253824", "MEAN_MOTION": 14.26829651, "ECCENTRICITY": 0.00688055, "INCLINATION": 99.6814, "RA_OF_ASC_NODE": 240.65, "ARG_OF_PERICENTER": 344.4297, "MEAN_ANOMALY": 137.0943, "EPHEMERIS_TYPE": 0, "CLASSIFICATION_TYPE": "U", "NORAD_CAT_ID": 30548, "ELEMENT_SET_NO": 999, "REV_AT_EPOCH": 14049, "BSTAR": 0.0032327032, "MEAN_MOTION_DOT": 7.994e-05, "MEAN_MOTION_DDOT": 0}, "tle": {"line1": "1 30548U 99025AKN 25343.52691266  .00007994  00000+0  32327-2 0  9996", "line2": "2 30548  99.6814 240.6500 0068805 344.4297 137.0943 14.26829651140495"}}, "geometry": {"type": "Point", "coordinates": [-118.61314966819883, 1.4339187949555456]}}, {"type": "Feature", "properties": {"norad_id": 30549, "name": "FENGYUN 1C DEB", "group": "fengyun-1c-debris", "lat": 65.95254553864174, "lon": 85.4914121953466, "alt_km": 1092.9775147243645, "timestamp": "2025-12-10T09:57:44.976497+00:00", "meta": {"OBJECT_NAME": "FENGYUN 1C DEB", "OBJECT_ID": "1999-025AKP", "EPOCH": "2025-12-03T07:39:14.923872", "MEAN_MOTION": 13.98584639, "ECCENTRICITY": 0.0288262, "INCLINATION": 98.4796, "RA_OF_ASC_NODE": 98.4482, "ARG_OF_PERICENTER": 283.4344, "MEAN_ANOMALY": 73.4847, "EPHEMERIS_TYPE": 0, "CLASSIFICATION_TYPE": "U", "NORAD_CAT_ID": 30549, "ELEMENT_SET_NO": 999, "REV_AT_EPOCH": 95162, "BSTAR": 0.0024216, "MEAN_MOTION_DOT": 4.917e-05, "MEAN_MOTION_DDOT": 0}, "tle": {"line1": "1 30549U 99025AKP 25337.31892273  .00004917  00000+0  24216-2 0  9998", "line2": "2 30549  98.4796  98.4482 0288262 283.4344  73.4847 13.98584639951629"}}, "geometry": {"type": "Point", "coordinates": [85.4914121953466, 65.95254553864174]}}, {"type": "Feature", "properties": {"norad_id": 30550, "name": "FENGYUN 1C DEB", "group": "fengyun-1c-debris", "lat": -13.678534611627951, "lon": 57.50080753324486, "alt_km": 921.986598544735, "timestamp": "2025-12-10T09:57:44.976507+00:00", "meta": {"OBJECT_NAME": "FENGYUN 1C DEB", "OBJECT_ID": "1999-025AKQ", "EPOCH": "2025-12-09T11:38:59.399808", "MEAN_MOTION": 14.02348674, "ECCENTRICITY": 0.01331679, "INCLINATION": 99.0528, "RA_OF_ASC_NODE": 238.8009, "ARG_OF_PERICENTER": 306.2736, "MEAN_ANOMALY": 237.9374, "EPHEMERIS_TYPE": 0, "CLASSIFICATION_TYPE": "U", "NORAD_CAT_ID": 30550, "ELEMENT_SET_NO": 999, "REV_AT_EPOCH": 95349, "BSTAR": 0.0044165795, "MEAN_MOTION_DOT": 7.287e-05, "MEAN_MOTION_DDOT": 0}, "tle": {"line1": "1 30550U 99025AKQ 25343.48540972  .00007287  00000+0  44166-2 0  9990", "line2": "2 30550  99.0528 238.8009 0133167 306.2736 237.9374 14.02348674953490"}}, "geometry": {"type": "Point", "coordinates": [57.50080753324486, -13.678534611627951]}}, {"type": "Feature", "properties": {"norad_id": 30552, "name": "FENGYUN 1C DEB", "group": "fengyun-1c-debris", "lat": 52.249977981604665, "lon": -52.46013314617206, "alt_km": 712.3480298760505, "timestamp": "2025-12-10T09:57:44.976518+00:00", "meta": {"OBJECT_NAME": "FENGYUN 1C DEB", "OBJECT_ID": "1999-025AKS", "EPOCH": "2025-12-09T06:58:00.357024", "MEAN_MOTION": 14.54619199, "ECCENTRICITY": 0.00145, "INCLINATION": 98.8357, "RA_OF_ASC_NODE": 114.763, "ARG_OF_PERICENTER": 261.6134, "MEAN_ANOMALY": 98.3418, "EPHEMERIS_TYPE": 0, "CLASSIFICATION_TYPE": "U", "NORAD_CAT_ID": 30552, "ELEMENT_SET_NO": 999, "REV_AT_EPOCH": 97602, "BSTAR": 0.0048141, "MEAN_MOTION_DOT": 0.00020602, "MEAN_MOTION_DDOT": 0}, "tle": {"line1": "1 30552U 99025AKS 25343.29028191  .00020602  00000+0  48141-2 0  9998", "line2": "2 30552  98.8357 114.7630 0014500 261.6134  98.3418 14.54619199976028"}}, "geometry": {"type": "Point", "coordinates": [-52.46013314617206, 52.249977981604665]}}, {"type": "Feature", "properties": {"norad_id": 30553, "name": "FENGYUN 1C DEB", "group": "fengyun-1c-debris", "lat": 36.41323913869726, "lon": 72.21122297224821, "alt_km": 659.3467338289556, "timestamp": "2025-12-10T09:57:44.976528+00:00", "meta": {"OBJECT_NAME": "FENGYUN 1C DEB", "OBJECT_ID": "1999-025AKT", "EPOCH": "2025-12-10T04:54:02.867904", "MEAN_MOTION": 14.72093691, "ECCENTRICITY": 0.0021124, "INCLINATION": 99.1286, "RA_OF_ASC_NODE": 78.7863, "ARG_OF_PERICENTER": 158.4181, "MEAN_ANOMALY": 201.7918, "EPHEMERIS_TYPE": 0, "CLASSIFICATION_TYPE": "U", "NORAD_CAT_ID": 30553, "ELEMENT_SET_NO": 999, "REV_AT_EPOCH": 98436, "BSTAR": 0.0050524, "MEAN_MOTION_DOT": 0.00031977, "MEAN_MOTION_DDOT": 0}, "tle": {"line1": "1 30553U 99025AKT 25344.20419986  .00031977  00000+0  50524-2 0  9992", "line2": "2 30553  99.1286  78.7863 0021124 158.4181 201.7918 14.72093691984360"}}, "geometry": {"type": "Point", "coordinates": [72.21122297224821, 36.41323913869726]}}, {"type": "Feature", "properties": {"norad_id": 30555, "name": "FENGYUN 1C DEB", "group": "fengyun-1c-debris", "lat": -71.55742648473662, "lon": -169.56669433319394, "alt_km": 802.1948361066934, "timestamp": "2025-12-10T09:57:44.976538+00:00", "meta": {"OBJECT_NAME": "FENGYUN 1C DEB", "OBJECT_ID": "1999-025AKV", "EPOCH": "2025-12-10T02:17:06.074016", "MEAN_MOTION": 14.20781778, "ECCENTRICITY": 0.0042377, "INCLINATION": 98.7569, "RA_OF_ASC_NODE": 37.6458, "ARG_OF_PERICENTER": 279.19, "MEAN_ANOMALY": 139.401, "EPHEMERIS_TYPE": 0, "CLASSIFICATION_TYPE": "U", "NORAD_CAT_ID": 30555, "ELEMENT_SET_NO": 999, "REV_AT_EPOCH": 96898, "BSTAR": 0.001832, "MEAN_MOTION_DOT": 3.948e-05, "MEAN_MOTION_DDOT": 0}, "tle": {"line1": "1 30555U 99025AKV 25344.09520919  .00003948  00000+0  18320-2 0  9995", "line2": "2 30555  98.7569  37.6458 0042377 279.1900 139.4010 14.20781778968981"}}, "geometry": {"type": "Point", "coordinates": [-169.56669433319394, -71.55742648473662]}}, {"type": "Feature", "properties": {"norad_id": 30556, "name": "FENGYUN 1C DEB", "group": "fengyun-1c-debris", "lat": -21.59228747268287, "lon": 154.25107547329333, "alt_km": 857.7119012350431, "timestamp": "2025-12-10T09:57:44.976548+00:00", "meta": {"OBJECT_NAME": "FENGYUN 1C DEB", "OBJECT_ID": "1999-025AKW", "EPOCH": "2025-12-09T22:51:20.144736", "MEAN_MOTION": 14.01363301, "ECCENTRICITY": 0.0067856, "INCLINATION": 98.7816, "RA_OF_ASC_NODE": 337.3132, "ARG_OF_PERICENTER": 245.4007, "MEAN_ANOMALY": 143.4402, "EPHEMERIS_TYPE": 0, "CLASSIFICATION_TYPE": "U", "NORAD_CAT_ID": 30556, "ELEMENT_SET_NO": 999, "REV_AT_EPOCH": 96218, "BSTAR": 0.00038567, "MEAN_MOTION_DOT": 5.5e-06, "MEAN_MOTION_DDOT": 0}, "tle": {"line1": "1 30556U 99025AKW 25343.95231649  .00000550  00000+0  38567-3 0  9991", "line2": "2 30556  98.7816 337.3132 0067856 245.4007 143.4402 14.01363301962182"}}, "geometry": {"type": "Point", "coordinates": [154.25107547329333, -21.59228747268287]}}]}